{
  "44714": {
    "noradId": "44714",
    "tle": [
      "1 44714C 19074B   25311.26854167  .00013427  00000+0  89958-3 0  3118",
      "2 44714  53.0535  16.1882 0001470  91.3276 125.6189 15.06386402    17"
    ]
  },
  "44716": {
    "noradId": "44716",
    "tle": [
      "1 44716C 19074D   25311.28312500  .00992540  00000+0  11175-2 0  3119",
      "2 44716  53.0378 296.7181 0004889  89.5440 231.9811 16.07564439    14"
    ]
  },
  "44717": {
    "noradId": "44717",
    "tle": [
      "1 44717C 19074E   25311.28729167  .00312180  00000+0  10394-2 0  3119",
      "2 44717  53.0459 354.6465 0004649 349.2947 324.3008 15.89197367    12"
    ]
  },
  "44718": {
    "noradId": "44718",
    "tle": [
      "1 44718C 19074F   25311.26854167  .00013543  00000+0  90787-3 0  3113",
      "2 44718  53.0545  16.1883 0001309 101.8428 235.1884 15.06365300    13"
    ]
  },
  "44723": {
    "noradId": "44723",
    "tle": [
      "1 44723C 19074L   25311.28798611  .00024170  00000+0  12613-2 0  3111",
      "2 44723  53.0524  12.2769 0002073 308.7000 128.9712 15.15400907    11"
    ]
  },
  "44724": {
    "noradId": "44724",
    "tle": [
      "1 44724C 19074M   25311.27062500  .00971690  00000+0  35966-1 0  3115",
      "2 44724  53.0553  15.3053 0001352  83.7540  17.1768 15.26166021    10"
    ]
  },
  "44725": {
    "noradId": "44725",
    "tle": [
      "1 44725C 19074N   25311.26715278  .00015947  00000+0  10690-2 0  3114",
      "2 44725  53.0548  36.1960 0001270  99.1879 220.3233 15.06364736    14"
    ]
  },
  "44736": {
    "noradId": "44736",
    "tle": [
      "1 44736C 19074Z   25311.28243056  .00100130  00000+0  18076-2 0  3113",
      "2 44736  53.0496   3.4243 0005689 291.4272 256.1763 15.49014062    17"
    ]
  },
  "44741": {
    "noradId": "44741",
    "tle": [
      "1 44741C 19074AE  25311.24562500  .00019195  00000+0  12871-2 0  3110",
      "2 44741  53.0538  36.2913 0001265 102.8659 299.8578 15.06352037    16"
    ]
  },
  "44744": {
    "noradId": "44744",
    "tle": [
      "1 44744C 19074AH  25311.28937500  .00059718  00000+0  32826-2 0  3110",
      "2 44744  53.0506  53.7387 0003097 179.4822 262.8724 15.13522856    19"
    ]
  },
  "44747": {
    "noradId": "44747",
    "tle": [
      "1 44747C 19074AL  25311.28034722  .00025531  00000+0  56081-3 0  3113",
      "2 44747  53.0463 319.2442 0003402 100.8063   3.6711 15.43407711    13"
    ]
  },
  "44748": {
    "noradId": "44748",
    "tle": [
      "1 44748C 19074AM  25311.26645833  .00016837  00000+0  11288-2 0  3111",
      "2 44748  53.0537  56.1972 0001163 103.6836 202.0843 15.06358323    16"
    ]
  },
  "44751": {
    "noradId": "44751",
    "tle": [
      "1 44751C 19074AQ  25311.26437500  .00017355  00000+0  11635-2 0  3117",
      "2 44751  53.0541  56.2060 0001155 100.0562 114.4097 15.06359497    12"
    ]
  },
  "44752": {
    "noradId": "44752",
    "tle": [
      "1 44752C 19074AR  25311.26576389  .00007102  00000+0  24516-3 0  3119",
      "2 44752  53.0705 356.5617 0002622 172.9495  28.7706 15.29405587    13"
    ]
  },
  "44753": {
    "noradId": "44753",
    "tle": [
      "1 44753C 19074AS  25311.27409722  .00026413  00000+0  17687-2 0  3113",
      "2 44753  53.0541  16.1631 0001254  87.2120  39.9217 15.06394763    19"
    ]
  },
  "44758": {
    "noradId": "44758",
    "tle": [
      "1 44758C 19074AX  25311.28312500  .00075345  00000+0  86649-3 0  3119",
      "2 44758  53.0407 331.7968 0004088  47.5092  55.5296 15.61286148    18"
    ]
  },
  "44759": {
    "noradId": "44759",
    "tle": [
      "1 44759C 19074AY  25311.26020833  .00637060  00000+0  12451-2 0  3110",
      "2 44759  53.0342 354.0631 0006780   3.6548 122.2250 15.98784425    15"
    ]
  },
  "44761": {
    "noradId": "44761",
    "tle": [
      "1 44761C 19074BA  25311.28937500  .05526800  00000+0  18177-2 0  3118",
      "2 44761  53.0279 338.5867 0005257  22.3532 287.1925 16.25100201    19"
    ]
  },
  "44765": {
    "noradId": "44765",
    "tle": [
      "1 44765C 19074BE  25311.29006944  .00139830  00000+0  14041-2 0  3116",
      "2 44765  53.0529  17.8082 0005386 359.4549  59.0732 15.64671738    14"
    ]
  },
  "44768": {
    "noradId": "44768",
    "tle": [
      "1 44768C 19074BH  25311.27756944  .00015267  00000+0  10235-2 0  3117",
      "2 44768  53.0542  56.1487 0001244  74.0856 271.9481 15.06363971    16"
    ]
  },
  "44771": {
    "noradId": "44771",
    "tle": [
      "1 44771C 19074BL  25311.27479167  .00014780  00000+0  99091-3 0  3117",
      "2 44771  53.0542  56.1615 0001350  82.9287 308.0382 15.06359560    18"
    ]
  },
  "44772": {
    "noradId": "44772",
    "tle": [
      "1 44772C 19074BM  25311.26298611  .00018459  00000+0  12374-2 0  3115",
      "2 44772  53.0548  36.2138 0001388  86.4980 290.3757 15.06363031    11"
    ]
  },
  "44925": {
    "noradId": "44925",
    "tle": [
      "1 44925C 20001M   25311.28312500  .00053300  00000+0  76841-3 0  3117",
      "2 44925  53.0477 131.5453 0004158 165.9669 248.1360 15.55318932    11"
    ]
  },
  "44927": {
    "noradId": "44927",
    "tle": [
      "1 44927C 20001P   25311.27131944  .00009225  00000+0  61827-3 0  3114",
      "2 44927  53.0517 176.1787 0001549  93.2109 118.9413 15.06378964    16"
    ]
  },
  "44930": {
    "noradId": "44930",
    "tle": [
      "1 44930C 20001S   25311.26368056  .00009226  00000+0  61830-3 0  3118",
      "2 44930  53.0524 176.2121 0001588  92.1084 358.5919 15.06378488    18"
    ]
  },
  "44933": {
    "noradId": "44933",
    "tle": [
      "1 44933C 20001V   25311.28798611  .00083246  00000+0  90762-3 0  3117",
      "2 44933  53.0432 108.2504 0008785 121.3139 108.0327 15.62610353    14"
    ]
  },
  "44940": {
    "noradId": "44940",
    "tle": [
      "1 44940C 20001AC  25311.28243056  .03794500  00000+0  17569-2 0  3111",
      "2 44940  53.0261  81.6688 0004875 322.1438 282.4909 16.20966018    18"
    ]
  },
  "44941": {
    "noradId": "44941",
    "tle": [
      "1 44941C 20001AD  25311.26854167 -.00010026  00000+0 -67139-3 0  3113",
      "2 44941  53.0524 156.1905 0001593  92.8500 314.2325 15.06428266    13"
    ]
  },
  "44942": {
    "noradId": "44942",
    "tle": [
      "1 44942C 20001AE  25311.28104167  .00430820  00000+0  10435-2 0  3116",
      "2 44942  52.9844 270.5894 0007611  77.5938 271.5057 15.95118352    14"
    ]
  },
  "44949": {
    "noradId": "44949",
    "tle": [
      "1 44949C 20001AM  25311.27270833  .00003283  00000+0  22007-3 0  3114",
      "2 44949  53.0519 156.1670 0001482  85.6487 224.0822 15.06372082    19"
    ]
  },
  "44961": {
    "noradId": "44961",
    "tle": [
      "1 44961C 20001AZ  25311.27687500  .00005565  00000+0  37308-3 0  3116",
      "2 44961  53.0520 136.1518 0001496  81.0443 261.2779 15.06373132    12"
    ]
  },
  "44968": {
    "noradId": "44968",
    "tle": [
      "1 44968C 20001BG  25311.25743056  .00004861  00000+0  32579-3 0  3113",
      "2 44968  53.0517 136.2398 0001568  91.1596 125.6656 15.06386036    17"
    ]
  },
  "44972": {
    "noradId": "44972",
    "tle": [
      "1 44972C 20001BL  25311.25187500  .00283560  00000+0  21502-2 0  3112",
      "2 44972  53.0075  47.6707 0005937 325.5137 114.7510 15.71374929    17"
    ]
  },
  "45044": {
    "noradId": "45044",
    "tle": [
      "1 45044C 20006A   25311.27409722  .00007816  00000+0  52395-3 0  3116",
      "2 45044  53.0535  96.1641 0001195  98.7177  68.5000 15.06371214    12"
    ]
  },
  "45047": {
    "noradId": "45047",
    "tle": [
      "1 45047C 20006D   25311.26854167  .00006736  00000+0  45145-3 0  3110",
      "2 45047  53.0531 116.7285 0001622  91.4718 175.2414 15.06379264    18"
    ]
  },
  "45048": {
    "noradId": "45048",
    "tle": [
      "1 45048C 20006E   25311.28312500  .00115730  00000+0  41081-2 0  3112",
      "2 45048  53.0367  93.4342 0009891 167.9478 172.5828 15.28341562    12"
    ]
  },
  "45054": {
    "noradId": "45054",
    "tle": [
      "1 45054C 20006L   25311.27062500  .00006531  00000+0  43780-3 0  3117",
      "2 45054  53.0520 116.1791 0001396  86.2383 352.1456 15.06373899    18"
    ]
  },
  "45057": {
    "noradId": "45057",
    "tle": [
      "1 45057C 20006P   25311.27965278  .01005900  00000+0  26579-1 0  3119",
      "2 45057  53.0545 114.1260 0000993  84.5965 278.1556 15.36862226    14"
    ]
  },
  "45060": {
    "noradId": "45060",
    "tle": [
      "1 45060C 20006S   25311.27965278  .00006092  00000+0  40831-3 0  3114",
      "2 45060  53.0527 116.1393 0001483  95.6425 251.7167 15.06376747    16"
    ]
  },
  "45061": {
    "noradId": "45061",
    "tle": [
      "1 45061C 20006T   25311.27201389  .00005496  00000+0  36841-3 0  3114",
      "2 45061  53.0527 116.1742 0001339  90.4519 175.4606 15.06376254    15"
    ]
  },
  "45062": {
    "noradId": "45062",
    "tle": [
      "1 45062C 20006U   25311.28034722  .00124230  00000+0  36921-2 0  3117",
      "2 45062  53.0536 112.5635 0001351 304.8329 122.0550 15.34077576    14"
    ]
  },
  "45064": {
    "noradId": "45064",
    "tle": [
      "1 45064C 20006W   25311.27965278  .00009059  00000+0  60723-3 0  3116",
      "2 45064  53.0543  96.1356 0001159  84.5028 232.8845 15.06372706    14"
    ]
  },
  "45071": {
    "noradId": "45071",
    "tle": [
      "1 45071C 20006AD  25311.28104167  .00007470  00000+0  50070-3 0  3116",
      "2 45071  53.0528  96.1320 0001194  83.1908 101.7115 15.06378033    10"
    ]
  },
  "45072": {
    "noradId": "45072",
    "tle": [
      "1 45072C 20006AE  25311.27826389  .00007957  00000+0  53342-3 0  3118",
      "2 45072  53.0527  96.1436 0001248  84.6287  65.2424 15.06369980    12"
    ]
  },
  "45074": {
    "noradId": "45074",
    "tle": [
      "1 45074C 20006AG  25311.27826389  .00006938  00000+0  46513-3 0  3110",
      "2 45074  53.0527  96.1454 0001248  79.3621  10.4735 15.06372321    17"
    ]
  }
}